{"type":"FeatureCollection", "features": [
{"type":"Feature","geometry":{"type":"Polygon","coordinates":[[[-87.7107,41.9974],[-87.714,41.9973],[-87.7186,41.9973],[-87.7191,41.9973],[-87.7277,41.9973],[-87.7328,41.9973],[-87.7483,41.9973],[-87.7483,41.9857],[-87.7483,41.984],[-87.7482,41.9812],[-87.7479,41.9725],[-87.7479,41.9706],[-87.7478,41.969],[-87.7476,41.9686],[-87.7477,41.968],[-87.7477,41.9671],[-87.7476,41.9645],[-87.7476,41.9642],[-87.7471,41.9632],[-87.747,41.9628],[-87.7476,41.9622],[-87.7473,41.9537],[-87.7473,41.953],[-87.7472,41.9499],[-87.7472,41.9497],[-87.7471,41.9469],[-87.7471,41.946],[-87.7469,41.9388],[-87.7275,41.9391],[-87.7174,41.9392],[-87.7066,41.9393],[-87.6936,41.9394],[-87.6926,41.9394],[-87.6928,41.9395],[-87.6936,41.9403],[-87.6941,41.941],[-87.6945,41.9415],[-87.6953,41.9428],[-87.6962,41.9466],[-87.6962,41.947],[-87.6967,41.9489],[-87.6969,41.95],[-87.6968,41.9504],[-87.6964,41.951],[-87.6958,41.9522],[-87.6955,41.9526],[-87.6946,41.9537],[-87.6944,41.9547],[-87.6945,41.9553],[-87.6944,41.9559],[-87.6943,41.9577],[-87.6946,41.9592],[-87.6947,41.9601],[-87.6947,41.9611],[-87.6948,41.9614],[-87.6955,41.9629],[-87.6961,41.9637],[-87.6983,41.9659],[-87.6991,41.9667],[-87.7007,41.9683],[-87.7011,41.9685],[-87.7014,41.9689],[-87.7015,41.9692],[-87.702,41.9696],[-87.7026,41.9702],[-87.7032,41.9712],[-87.7036,41.972],[-87.7038,41.9731],[-87.7042,41.974],[-87.7045,41.9749],[-87.7045,41.9752],[-87.7048,41.9761],[-87.7049,41.9764],[-87.7055,41.9787],[-87.7056,41.979],[-87.7061,41.9805],[-87.7067,41.9821],[-87.707,41.9835],[-87.7075,41.985],[-87.7075,41.9852],[-87.7078,41.986],[-87.7079,41.9863],[-87.7082,41.987],[-87.7085,41.9882],[-87.7085,41.9885],[-87.7087,41.9889],[-87.7091,41.9904],[-87.7094,41.9913],[-87.7095,41.9916],[-87.7102,41.994],[-87.7105,41.9958],[-87.7107,41.9974]]]},"properties":{"dist_num":"17","dist_label":"17TH"}},
{"type":"Feature","geometry":{"type":"Polygon","coordinates":[[[-87.6543,41.9901],[-87.6595,41.99],[-87.6603,41.99],[-87.6603,41.9909],[-87.6704,41.9908],[-87.6718,41.9908],[-87.6725,41.9908],[-87.6805,41.9907],[-87.6891,41.9905],[-87.6901,41.9905],[-87.7035,41.9904],[-87.7091,41.9904],[-87.7087,41.9889],[-87.7085,41.9885],[-87.7085,41.9882],[-87.7082,41.987],[-87.7079,41.9863],[-87.7078,41.986],[-87.7075,41.9852],[-87.7075,41.985],[-87.707,41.9835],[-87.7067,41.9821],[-87.7061,41.9805],[-87.7056,41.979],[-87.7055,41.9787],[-87.7049,41.9764],[-87.7048,41.9761],[-87.7045,41.9752],[-87.7045,41.9749],[-87.7042,41.974],[-87.7038,41.9731],[-87.7036,41.972],[-87.7032,41.9712],[-87.7026,41.9702],[-87.702,41.9696],[-87.7015,41.9692],[-87.7014,41.9689],[-87.7011,41.9685],[-87.6923,41.9686],[-87.6886,41.9686],[-87.6798,41.9687],[-87.6697,41.9689],[-87.6693,41.9689],[-87.6592,41.969],[-87.6498,41.9692],[-87.6495,41.9692],[-87.6452,41.9697],[-87.6449,41.9697],[-87.6443,41.9699],[-87.645,41.9708],[-87.6456,41.9717],[-87.646,41.9725],[-87.6462,41.973],[-87.6463,41.9735],[-87.6464,41.9768],[-87.6465,41.9772],[-87.6467,41.9775],[-87.6471,41.9777],[-87.6475,41.9778],[-87.6486,41.9778],[-87.6488,41.9782],[-87.6499,41.979],[-87.6502,41.9793],[-87.6505,41.9795],[-87.6502,41.9797],[-87.6506,41.9803],[-87.6507,41.9811],[-87.6507,41.9825],[-87.6506,41.9835],[-87.6505,41.984],[-87.6499,41.9854],[-87.6507,41.9856],[-87.6511,41.9858],[-87.6516,41.9861],[-87.6523,41.9867],[-87.6537,41.9877],[-87.6543,41.9884],[-87.6542,41.9885],[-87.6542,41.99],[-87.6543,41.9901]]]},"properties":{"dist_num":"20","dist_label":"20TH"}},
{"type":"Feature","geometry":{"type":"Polygon","coordinates":[[[-87.6443,41.9699],[-87.6449,41.9697],[-87.6452,41.9697],[-87.6495,41.9692],[-87.6498,41.9692],[-87.6592,41.969],[-87.6693,41.9689],[-87.6697,41.9689],[-87.6798,41.9687],[-87.6886,41.9686],[-87.6923,41.9686],[-87.7011,41.9685],[-87.7007,41.9683],[-87.6991,41.9667],[-87.6983,41.9659],[-87.6961,41.9637],[-87.6955,41.9629],[-87.6948,41.9614],[-87.6947,41.9611],[-87.6947,41.9601],[-87.6946,41.9592],[-87.6943,41.9577],[-87.6944,41.9559],[-87.6945,41.9553],[-87.6944,41.9547],[-87.6946,41.9537],[-87.6955,41.9526],[-87.6958,41.9522],[-87.6964,41.951],[-87.6968,41.9504],[-87.6969,41.95],[-87.6967,41.9489],[-87.6962,41.947],[-87.6962,41.9466],[-87.6953,41.9428],[-87.6945,41.9415],[-87.6941,41.941],[-87.6936,41.9403],[-87.6928,41.9395],[-87.6926,41.9394],[-87.6923,41.9392],[-87.6915,41.9388],[-87.6911,41.9382],[-87.6907,41.9374],[-87.6904,41.9369],[-87.6901,41.9366],[-87.6885,41.9364],[-87.6877,41.9359],[-87.687,41.9353],[-87.6868,41.9349],[-87.686,41.934],[-87.6855,41.9338],[-87.6851,41.9337],[-87.6843,41.9336],[-87.6835,41.9334],[-87.6834,41.9333],[-87.6828,41.9323],[-87.6828,41.9322],[-87.6821,41.9314],[-87.6808,41.9306],[-87.6798,41.9286],[-87.6797,41.9285],[-87.6778,41.928],[-87.6765,41.9276],[-87.6758,41.9272],[-87.6749,41.9267],[-87.6746,41.9261],[-87.6745,41.9251],[-87.6654,41.9252],[-87.6566,41.9253],[-87.6494,41.9254],[-87.6376,41.9256],[-87.634,41.9257],[-87.6332,41.9258],[-87.6307,41.9262],[-87.6296,41.9265],[-87.6298,41.9271],[-87.6303,41.9276],[-87.6309,41.9285],[-87.6311,41.9291],[-87.6312,41.93],[-87.631,41.9311],[-87.6309,41.9316],[-87.6309,41.932],[-87.6313,41.9324],[-87.6321,41.9324],[-87.6321,41.9326],[-87.6314,41.9326],[-87.6314,41.933],[-87.6309,41.933],[-87.6305,41.9332],[-87.6304,41.9337],[-87.6307,41.9339],[-87.6317,41.9352],[-87.6321,41.9358],[-87.6322,41.9365],[-87.6324,41.9372],[-87.6329,41.9377],[-87.6333,41.9384],[-87.6336,41.939],[-87.634,41.9404],[-87.634,41.9414],[-87.6343,41.9416],[-87.6347,41.9414],[-87.6348,41.9407],[-87.635,41.9401],[-87.6355,41.9397],[-87.6358,41.9398],[-87.6367,41.9397],[-87.6371,41.9398],[-87.6383,41.9411],[-87.6384,41.9414],[-87.6385,41.9425],[-87.6388,41.9431],[-87.6393,41.9435],[-87.6396,41.9436],[-87.6405,41.9448],[-87.6404,41.9452],[-87.64,41.9459],[-87.6414,41.947],[-87.6419,41.9475],[-87.6421,41.9479],[-87.6419,41.948],[-87.641,41.9475],[-87.6403,41.9467],[-87.6403,41.9465],[-87.6396,41.9463],[-87.6389,41.9463],[-87.6387,41.9462],[-87.6374,41.9458],[-87.6368,41.945],[-87.637,41.9449],[-87.6362,41.9432],[-87.6359,41.943],[-87.6355,41.9429],[-87.6347,41.9432],[-87.6343,41.9431],[-87.6341,41.9429],[-87.6339,41.9424],[-87.6334,41.9422],[-87.6331,41.9423],[-87.6332,41.9427],[-87.6336,41.943],[-87.634,41.9434],[-87.6349,41.9442],[-87.6363,41.9457],[-87.6374,41.9471],[-87.638,41.9479],[-87.6387,41.9492],[-87.6397,41.9515],[-87.6401,41.9526],[-87.6405,41.9535],[-87.641,41.9548],[-87.6413,41.9559],[-87.6417,41.9584],[-87.6415,41.9602],[-87.6417,41.9604],[-87.6422,41.961],[-87.6423,41.9615],[-87.6421,41.9619],[-87.6416,41.9622],[-87.6412,41.9623],[-87.6368,41.9629],[-87.6359,41.9628],[-87.6355,41.9626],[-87.6353,41.9623],[-87.6353,41.962],[-87.6358,41.9614],[-87.6364,41.9609],[-87.6368,41.9607],[-87.6376,41.9604],[-87.6385,41.9603],[-87.6393,41.9604],[-87.6403,41.9609],[-87.6408,41.9607],[-87.6409,41.9603],[-87.6405,41.9599],[-87.6386,41.9595],[-87.6375,41.9595],[-87.6368,41.9596],[-87.6358,41.9602],[-87.635,41.961],[-87.6344,41.9614],[-87.6336,41.9619],[-87.633,41.962],[-87.6323,41.9624],[-87.6319,41.9624],[-87.6315,41.9627],[-87.6314,41.963],[-87.6314,41.9634],[-87.6317,41.9642],[-87.632,41.9651],[-87.633,41.9654],[-87.6341,41.9655],[-87.6351,41.9655],[-87.6364,41.9658],[-87.6374,41.966],[-87.639,41.9666],[-87.6405,41.9669],[-87.6415,41.9675],[-87.6426,41.9683],[-87.6428,41.968],[-87.6433,41.9683],[-87.643,41.9685],[-87.6443,41.9699]]]},"properties":{"dist_num":"19","dist_label":"19TH"}},
{"type":"Feature","geometry":{"type":"Polygon","coordinates":[[[-87.7174,41.9392],[-87.7275,41.9391],[-87.7469,41.9388],[-87.7626,41.9386],[-87.766,41.9386],[-87.7865,41.9383],[-87.7946,41.9382],[-87.8065,41.938],[-87.8142,41.938],[-87.8165,41.9379],[-87.8164,41.9343],[-87.8071,41.9345],[-87.8066,41.9345],[-87.8063,41.9246],[-87.8059,41.9124],[-87.8057,41.9088],[-87.8026,41.9089],[-87.8001,41.909],[-87.7899,41.9091],[-87.7831,41.9092],[-87.7819,41.9092],[-87.7756,41.9093],[-87.7754,41.902],[-87.7644,41.9022],[-87.746,41.9024],[-87.7358,41.9025],[-87.7261,41.9027],[-87.7166,41.9028],[-87.7168,41.9093],[-87.7167,41.9099],[-87.7166,41.9108],[-87.717,41.9243],[-87.7171,41.9281],[-87.7172,41.9316],[-87.7172,41.9331],[-87.7173,41.9375],[-87.7174,41.9392]]]},"properties":{"dist_num":"25","dist_label":"25TH"}},
{"type":"Feature","geometry":{"type":"Polygon","coordinates":[[[-87.6926,41.9394],[-87.6936,41.9394],[-87.7066,41.9393],[-87.7174,41.9392],[-87.7173,41.9375],[-87.7172,41.9331],[-87.7172,41.9316],[-87.7171,41.9281],[-87.717,41.9243],[-87.7166,41.9108],[-87.7167,41.9099],[-87.7168,41.9093],[-87.7166,41.9028],[-87.7108,41.9028],[-87.7068,41.9028],[-87.6984,41.9029],[-87.6872,41.903],[-87.6824,41.9031],[-87.6751,41.9032],[-87.667,41.9034],[-87.6643,41.9034],[-87.6574,41.9035],[-87.6582,41.9045],[-87.6583,41.905],[-87.6582,41.9057],[-87.6577,41.9084],[-87.6569,41.9107],[-87.6569,41.9111],[-87.6576,41.9128],[-87.6577,41.9134],[-87.6581,41.9141],[-87.6587,41.9147],[-87.6592,41.9151],[-87.6599,41.9155],[-87.6609,41.9161],[-87.6613,41.9162],[-87.6621,41.9159],[-87.6626,41.9156],[-87.663,41.9155],[-87.6637,41.9156],[-87.6639,41.9159],[-87.6644,41.9176],[-87.6648,41.918],[-87.6654,41.9186],[-87.6657,41.9189],[-87.6665,41.92],[-87.6673,41.9209],[-87.6681,41.922],[-87.6684,41.9222],[-87.6695,41.9224],[-87.6709,41.9224],[-87.6717,41.9226],[-87.6722,41.9228],[-87.6738,41.924],[-87.6743,41.9244],[-87.6744,41.9246],[-87.6745,41.9251],[-87.6746,41.9261],[-87.6749,41.9267],[-87.6758,41.9272],[-87.6765,41.9276],[-87.6778,41.928],[-87.6797,41.9285],[-87.6798,41.9286],[-87.6808,41.9306],[-87.6821,41.9314],[-87.6828,41.9322],[-87.6828,41.9323],[-87.6834,41.9333],[-87.6835,41.9334],[-87.6843,41.9336],[-87.6851,41.9337],[-87.6855,41.9338],[-87.686,41.934],[-87.6868,41.9349],[-87.687,41.9353],[-87.6877,41.9359],[-87.6885,41.9364],[-87.6901,41.9366],[-87.6904,41.9369],[-87.6907,41.9374],[-87.6911,41.9382],[-87.6915,41.9388],[-87.6923,41.9392],[-87.6926,41.9394]]]},"properties":{"dist_num":"14","dist_label":"14TH"}},
{"type":"Feature","geometry":{"type":"Polygon","coordinates":[[[-87.6308,41.7942],[-87.6333,41.7942],[-87.6457,41.7939],[-87.6462,41.7939],[-87.6644,41.7937],[-87.6793,41.7935],[-87.6792,41.7866],[-87.679,41.7792],[-87.6788,41.7756],[-87.6788,41.772],[-87.6788,41.7702],[-87.6787,41.7684],[-87.6788,41.7648],[-87.6786,41.7575],[-87.6733,41.7577],[-87.6636,41.7578],[-87.6588,41.7578],[-87.6539,41.7579],[-87.6491,41.758],[-87.6467,41.758],[-87.6406,41.7581],[-87.6406,41.758],[-87.6386,41.758],[-87.6276,41.7582],[-87.6264,41.7582],[-87.6254,41.7582],[-87.6255,41.763],[-87.6255,41.7643],[-87.6256,41.7692],[-87.6257,41.7719],[-87.6258,41.7729],[-87.626,41.7734],[-87.6264,41.7743],[-87.627,41.7753],[-87.6279,41.7761],[-87.629,41.777],[-87.6295,41.7774],[-87.63,41.7779],[-87.6304,41.7787],[-87.6305,41.7798],[-87.6306,41.7824],[-87.6306,41.7841],[-87.6306,41.7854],[-87.6306,41.787],[-87.6306,41.7894],[-87.6306,41.7909],[-87.6307,41.7921],[-87.6308,41.7942]]]},"properties":{"dist_num":"7","dist_label":"7TH"}},
{"type":"Feature","geometry":{"type":"Polygon","coordinates":[[[-87.5795,41.7935],[-87.5806,41.7935],[-87.5866,41.7934],[-87.5867,41.7918],[-87.5867,41.7907],[-87.5866,41.7861],[-87.5915,41.7861],[-87.5914,41.7842],[-87.5957,41.7842],[-87.606,41.7841],[-87.606,41.7859],[-87.6164,41.7857],[-87.6202,41.7856],[-87.6209,41.7856],[-87.6251,41.7855],[-87.6257,41.7855],[-87.6303,41.7855],[-87.6306,41.7854],[-87.6306,41.7841],[-87.6306,41.7824],[-87.6305,41.7798],[-87.6304,41.7787],[-87.63,41.7779],[-87.6295,41.7774],[-87.629,41.777],[-87.6279,41.7761],[-87.627,41.7753],[-87.6264,41.7743],[-87.626,41.7734],[-87.6258,41.7729],[-87.6257,41.7719],[-87.6256,41.7692],[-87.6255,41.7643],[-87.6255,41.763],[-87.6254,41.7582],[-87.6245,41.7582],[-87.6233,41.7583],[-87.6112,41.7585],[-87.6048,41.7586],[-87.5978,41.7587],[-87.5956,41.7587],[-87.5945,41.7587],[-87.5855,41.7588],[-87.5634,41.759],[-87.5603,41.7591],[-87.5601,41.7591],[-87.5591,41.7596],[-87.5557,41.7613],[-87.5555,41.7613],[-87.5548,41.7617],[-87.5549,41.7618],[-87.5556,41.7616],[-87.5561,41.7618],[-87.5569,41.7624],[-87.5576,41.7628],[-87.5576,41.7631],[-87.5585,41.764],[-87.559,41.7638],[-87.5597,41.7644],[-87.5595,41.7645],[-87.5598,41.765],[-87.56,41.7649],[-87.5605,41.7654],[-87.5606,41.7658],[-87.5604,41.7663],[-87.5602,41.7664],[-87.5596,41.7665],[-87.5594,41.7668],[-87.5594,41.7681],[-87.5594,41.7685],[-87.5595,41.7692],[-87.5602,41.7686],[-87.5605,41.7684],[-87.5609,41.7684],[-87.5615,41.7686],[-87.5623,41.769],[-87.5625,41.7694],[-87.5632,41.7704],[-87.5635,41.7711],[-87.5635,41.7717],[-87.5636,41.7721],[-87.564,41.7721],[-87.565,41.7725],[-87.5657,41.7729],[-87.5663,41.7735],[-87.5664,41.7737],[-87.5668,41.774],[-87.5681,41.7757],[-87.5688,41.7764],[-87.5697,41.777],[-87.5699,41.777],[-87.5703,41.7774],[-87.5711,41.778],[-87.5716,41.7785],[-87.5718,41.7786],[-87.5722,41.7792],[-87.5727,41.7793],[-87.5732,41.7792],[-87.5734,41.7789],[-87.5734,41.7783],[-87.5732,41.778],[-87.5722,41.7772],[-87.5717,41.7766],[-87.5718,41.7761],[-87.572,41.7758],[-87.5728,41.7756],[-87.5735,41.7755],[-87.5741,41.7755],[-87.5748,41.7758],[-87.5747,41.7763],[-87.5751,41.7768],[-87.5753,41.7774],[-87.5753,41.7779],[-87.5749,41.7788],[-87.5744,41.7794],[-87.5741,41.7795],[-87.573,41.7798],[-87.5731,41.7803],[-87.5713,41.7808],[-87.5691,41.7814],[-87.5692,41.7815],[-87.5699,41.7813],[-87.5714,41.7816],[-87.5725,41.7819],[-87.5736,41.7823],[-87.5742,41.7826],[-87.5761,41.7837],[-87.5768,41.7852],[-87.5772,41.7863],[-87.5773,41.7868],[-87.5773,41.7876],[-87.5773,41.7881],[-87.5778,41.7882],[-87.5777,41.7884],[-87.5767,41.7884],[-87.5764,41.7886],[-87.5778,41.7896],[-87.5784,41.7901],[-87.5787,41.7907],[-87.5793,41.7914],[-87.5797,41.7922],[-87.5797,41.7928],[-87.5795,41.7935]]]},"properties":{"dist_num":"3","dist_label":"3RD"}},
{"type":"Feature","geometry":{"type":"Polygon","coordinates":[[[-87.5548,41.7617],[-87.5555,41.7613],[-87.5557,41.7613],[-87.5591,41.7596],[-87.5601,41.7591],[-87.5603,41.7591],[-87.5634,41.759],[-87.5855,41.7588],[-87.5945,41.7587],[-87.5956,41.7587],[-87.5954,41.7585],[-87.5957,41.7569],[-87.597,41.7514],[-87.5982,41.7459],[-87.5987,41.744],[-87.6005,41.7367],[-87.6019,41.7294],[-87.603,41.7257],[-87.6036,41.7232],[-87.6038,41.722],[-87.6012,41.7221],[-87.5945,41.7222],[-87.5918,41.7222],[-87.5851,41.7223],[-87.585,41.7214],[-87.5849,41.7199],[-87.5849,41.7179],[-87.5847,41.7143],[-87.5847,41.7136],[-87.5847,41.7125],[-87.5846,41.7113],[-87.5847,41.7103],[-87.5849,41.7094],[-87.5853,41.7086],[-87.5859,41.7076],[-87.5865,41.7068],[-87.5875,41.7058],[-87.5862,41.7059],[-87.5873,41.7053],[-87.5877,41.7051],[-87.5895,41.7036],[-87.5913,41.7019],[-87.5926,41.7006],[-87.5934,41.6996],[-87.594,41.6989],[-87.5947,41.6978],[-87.5952,41.697],[-87.5963,41.6951],[-87.5963,41.6946],[-87.5963,41.6938],[-87.5965,41.6934],[-87.6004,41.6861],[-87.6008,41.6852],[-87.6012,41.6841],[-87.6014,41.6835],[-87.6014,41.6825],[-87.6012,41.677],[-87.6011,41.6758],[-87.6008,41.675],[-87.6005,41.6745],[-87.6,41.6737],[-87.5997,41.6732],[-87.5964,41.6694],[-87.5944,41.667],[-87.5934,41.6659],[-87.5937,41.6659],[-87.5924,41.6643],[-87.5907,41.6624],[-87.5901,41.6617],[-87.5887,41.66],[-87.5877,41.6588],[-87.5847,41.6554],[-87.5808,41.6508],[-87.5805,41.6504],[-87.5796,41.6491],[-87.5792,41.6482],[-87.5789,41.6474],[-87.5786,41.6464],[-87.5784,41.6455],[-87.5784,41.6447],[-87.5593,41.6446],[-87.5409,41.6446],[-87.525,41.6446],[-87.5249,41.6573],[-87.5248,41.6736],[-87.5246,41.6986],[-87.5246,41.6995],[-87.5245,41.7026],[-87.5245,41.7027],[-87.5242,41.7082],[-87.5249,41.7087],[-87.525,41.7089],[-87.5254,41.7088],[-87.5262,41.7095],[-87.5256,41.7099],[-87.5251,41.7097],[-87.5249,41.7094],[-87.5245,41.7093],[-87.5242,41.7094],[-87.5246,41.7096],[-87.525,41.7099],[-87.5255,41.7101],[-87.5257,41.7104],[-87.5262,41.7098],[-87.5267,41.7099],[-87.5272,41.71],[-87.5284,41.7108],[-87.5264,41.7123],[-87.5274,41.7131],[-87.5278,41.7135],[-87.5281,41.7142],[-87.5285,41.7147],[-87.5287,41.7154],[-87.5287,41.7157],[-87.5283,41.7161],[-87.5276,41.7166],[-87.527,41.7169],[-87.5255,41.7174],[-87.5245,41.7174],[-87.5245,41.718],[-87.5249,41.7181],[-87.5253,41.7185],[-87.5255,41.719],[-87.5256,41.7196],[-87.5256,41.7204],[-87.5254,41.7209],[-87.525,41.7215],[-87.5245,41.7219],[-87.5245,41.7232],[-87.5245,41.7236],[-87.5247,41.7311],[-87.5249,41.7314],[-87.5253,41.7315],[-87.5289,41.732],[-87.5295,41.7324],[-87.529,41.7337],[-87.5293,41.7359],[-87.5295,41.7378],[-87.5295,41.7381],[-87.5299,41.7406],[-87.5389,41.7405],[-87.5398,41.7405],[-87.5399,41.741],[-87.5307,41.7411],[-87.5299,41.7413],[-87.5245,41.7414],[-87.5245,41.7415],[-87.5295,41.7414],[-87.5298,41.7415],[-87.53,41.7418],[-87.5301,41.7424],[-87.5307,41.7469],[-87.5309,41.748],[-87.5314,41.7483],[-87.5339,41.7493],[-87.5344,41.7494],[-87.5355,41.7499],[-87.536,41.7502],[-87.5374,41.7507],[-87.5385,41.7511],[-87.5389,41.7513],[-87.5399,41.7516],[-87.5405,41.7519],[-87.5411,41.7519],[-87.5429,41.7519],[-87.5432,41.752],[-87.5437,41.7525],[-87.5441,41.7534],[-87.5444,41.7541],[-87.5442,41.7546],[-87.5442,41.7548],[-87.5439,41.755],[-87.5439,41.7553],[-87.5425,41.7561],[-87.5418,41.7565],[-87.5406,41.7573],[-87.5411,41.7578],[-87.5416,41.7578],[-87.5426,41.7587],[-87.5426,41.7591],[-87.543,41.7596],[-87.5439,41.7601],[-87.5442,41.7602],[-87.5445,41.7601],[-87.5455,41.7594],[-87.5466,41.7589],[-87.5472,41.7587],[-87.548,41.7587],[-87.5487,41.7587],[-87.5495,41.759],[-87.5523,41.76],[-87.5541,41.7608],[-87.5543,41.7611],[-87.5548,41.7617]]]},"properties":{"dist_num":"4","dist_label":"4TH"}},
{"type":"Feature","geometry":{"type":"Polygon","coordinates":[[[-87.5956,41.7587],[-87.5978,41.7587],[-87.6048,41.7586],[-87.6112,41.7585],[-87.6233,41.7583],[-87.6245,41.7582],[-87.6254,41.7582],[-87.6264,41.7582],[-87.6276,41.7582],[-87.6386,41.758],[-87.6406,41.758],[-87.6406,41.7581],[-87.6467,41.758],[-87.6491,41.758],[-87.6539,41.7579],[-87.6588,41.7578],[-87.6636,41.7578],[-87.6733,41.7577],[-87.6786,41.7575],[-87.6783,41.7502],[-87.6783,41.7477],[-87.6784,41.7469],[-87.6785,41.7463],[-87.6789,41.7457],[-87.6794,41.7453],[-87.6801,41.7449],[-87.6809,41.7446],[-87.6817,41.7445],[-87.6827,41.7445],[-87.6827,41.7425],[-87.6825,41.7355],[-87.6782,41.7356],[-87.6635,41.7358],[-87.6437,41.7361],[-87.6434,41.736],[-87.64,41.736],[-87.64,41.7362],[-87.6355,41.7362],[-87.6344,41.736],[-87.6338,41.7359],[-87.634,41.7344],[-87.6335,41.7216],[-87.6259,41.7217],[-87.6251,41.7217],[-87.6249,41.7216],[-87.6239,41.7216],[-87.6235,41.7217],[-87.6226,41.7217],[-87.6059,41.722],[-87.6038,41.722],[-87.6036,41.7232],[-87.603,41.7257],[-87.6019,41.7294],[-87.6005,41.7367],[-87.5987,41.744],[-87.5982,41.7459],[-87.597,41.7514],[-87.5957,41.7569],[-87.5954,41.7585],[-87.5956,41.7587]]]},"properties":{"dist_num":"6","dist_label":"6TH"}},
{"type":"Feature","geometry":{"type":"Polygon","coordinates":[[[-87.6335,41.7216],[-87.634,41.7344],[-87.6338,41.7359],[-87.6344,41.736],[-87.6355,41.7362],[-87.64,41.7362],[-87.64,41.736],[-87.6434,41.736],[-87.6437,41.7361],[-87.6635,41.7358],[-87.6782,41.7356],[-87.6825,41.7355],[-87.6818,41.7137],[-87.6827,41.7137],[-87.6917,41.7136],[-87.6917,41.711],[-87.6915,41.7072],[-87.6963,41.7072],[-87.7014,41.7071],[-87.7013,41.7062],[-87.7026,41.7062],[-87.7079,41.7061],[-87.7111,41.7061],[-87.7113,41.7115],[-87.7126,41.7115],[-87.7126,41.7133],[-87.7211,41.7132],[-87.7211,41.7107],[-87.7209,41.705],[-87.7208,41.7043],[-87.7207,41.7003],[-87.7207,41.6993],[-87.7205,41.6962],[-87.7204,41.6922],[-87.7203,41.6913],[-87.7218,41.6913],[-87.7281,41.6912],[-87.7304,41.6911],[-87.7364,41.691],[-87.7397,41.6909],[-87.7395,41.6854],[-87.7394,41.6836],[-87.7368,41.6837],[-87.732,41.6838],[-87.7297,41.6838],[-87.7273,41.6839],[-87.7155,41.684],[-87.7115,41.6841],[-87.7114,41.6823],[-87.7115,41.6814],[-87.7115,41.6804],[-87.7101,41.6805],[-87.7099,41.6805],[-87.7053,41.6806],[-87.7054,41.6842],[-87.7006,41.6843],[-87.7006,41.6861],[-87.6994,41.6861],[-87.6995,41.6879],[-87.698,41.6879],[-87.6958,41.688],[-87.6956,41.6843],[-87.6858,41.6845],[-87.6857,41.6808],[-87.6857,41.6793],[-87.6857,41.6787],[-87.6859,41.6782],[-87.6863,41.6772],[-87.6817,41.6773],[-87.6796,41.6772],[-87.6785,41.6772],[-87.667,41.6774],[-87.6614,41.6775],[-87.6615,41.6829],[-87.6616,41.6848],[-87.646,41.685],[-87.6325,41.6852],[-87.6326,41.6895],[-87.6327,41.6914],[-87.6327,41.6925],[-87.6328,41.6961],[-87.633,41.6998],[-87.6332,41.7107],[-87.6333,41.7149],[-87.6334,41.718],[-87.6335,41.7216]],[[-87.6912,41.699],[-87.691,41.6923],[-87.6917,41.6923],[-87.6921,41.6922],[-87.6921,41.6917],[-87.6959,41.6917],[-87.6962,41.6989],[-87.6912,41.699]]]},"properties":{"dist_num":"22","dist_label":"22ND"}},
{"type":"Feature","geometry":{"type":"Polygon","coordinates":[[[-87.5784,41.6447],[-87.5784,41.6455],[-87.5786,41.6464],[-87.5789,41.6474],[-87.5792,41.6482],[-87.5796,41.6491],[-87.5805,41.6504],[-87.5808,41.6508],[-87.5847,41.6554],[-87.5877,41.6588],[-87.5887,41.66],[-87.5901,41.6617],[-87.5907,41.6624],[-87.5924,41.6643],[-87.5937,41.6659],[-87.5934,41.6659],[-87.5944,41.667],[-87.5964,41.6694],[-87.5997,41.6732],[-87.6,41.6737],[-87.6005,41.6745],[-87.6008,41.675],[-87.6011,41.6758],[-87.6012,41.677],[-87.6014,41.6825],[-87.6014,41.6835],[-87.6012,41.6841],[-87.6008,41.6852],[-87.6004,41.6861],[-87.5965,41.6934],[-87.5963,41.6938],[-87.5963,41.6946],[-87.5963,41.6951],[-87.5952,41.697],[-87.5947,41.6978],[-87.594,41.6989],[-87.5934,41.6996],[-87.5926,41.7006],[-87.5913,41.7019],[-87.5895,41.7036],[-87.5877,41.7051],[-87.5873,41.7053],[-87.5862,41.7059],[-87.5875,41.7058],[-87.5865,41.7068],[-87.5859,41.7076],[-87.5853,41.7086],[-87.5849,41.7094],[-87.5847,41.7103],[-87.5846,41.7113],[-87.5847,41.7125],[-87.5847,41.7136],[-87.5847,41.7143],[-87.5849,41.7179],[-87.5849,41.7199],[-87.585,41.7214],[-87.5851,41.7223],[-87.5918,41.7222],[-87.5945,41.7222],[-87.6012,41.7221],[-87.6038,41.722],[-87.6059,41.722],[-87.6226,41.7217],[-87.6235,41.7217],[-87.6239,41.7216],[-87.6249,41.7216],[-87.6251,41.7217],[-87.6259,41.7217],[-87.6335,41.7216],[-87.6334,41.718],[-87.6333,41.7149],[-87.6332,41.7107],[-87.633,41.6998],[-87.6328,41.6961],[-87.6327,41.6925],[-87.6327,41.6914],[-87.6326,41.6895],[-87.6325,41.6852],[-87.646,41.685],[-87.6616,41.6848],[-87.6615,41.6829],[-87.6614,41.6775],[-87.6614,41.6773],[-87.6612,41.6703],[-87.6577,41.6703],[-87.6417,41.6705],[-87.6414,41.6632],[-87.6472,41.6632],[-87.6471,41.6583],[-87.6474,41.6583],[-87.6477,41.657],[-87.6459,41.6572],[-87.6444,41.6573],[-87.6435,41.6573],[-87.642,41.6574],[-87.6413,41.6575],[-87.6408,41.6575],[-87.64,41.6573],[-87.6367,41.657],[-87.6353,41.6569],[-87.6341,41.657],[-87.633,41.6571],[-87.632,41.6573],[-87.6299,41.6582],[-87.6289,41.6588],[-87.6275,41.6598],[-87.6261,41.6608],[-87.6248,41.6614],[-87.6238,41.6619],[-87.6221,41.6622],[-87.6203,41.6614],[-87.6199,41.6611],[-87.6195,41.6608],[-87.6194,41.6601],[-87.6195,41.6595],[-87.6198,41.6588],[-87.6203,41.6581],[-87.622,41.6564],[-87.6225,41.6557],[-87.6227,41.6553],[-87.6229,41.6538],[-87.6228,41.6531],[-87.6226,41.6524],[-87.6223,41.6519],[-87.6217,41.6514],[-87.6202,41.6508],[-87.618,41.6504],[-87.6172,41.6503],[-87.6172,41.6476],[-87.6172,41.6446],[-87.6134,41.6446],[-87.6121,41.6446],[-87.6012,41.6446],[-87.5982,41.6446],[-87.5962,41.6446],[-87.5933,41.6446],[-87.5929,41.6446],[-87.5894,41.6447],[-87.5784,41.6447]]]},"properties":{"dist_num":"5","dist_label":"5TH"}},
{"type":"Feature","geometry":{"type":"Polygon","coordinates":[[[-87.6543,41.9901],[-87.6542,41.9902],[-87.6542,41.9909],[-87.6543,41.991],[-87.6543,41.9918],[-87.6541,41.9931],[-87.6545,41.9934],[-87.6545,41.9937],[-87.6543,41.9939],[-87.6544,41.9945],[-87.6546,41.9945],[-87.6545,41.9954],[-87.6546,41.9957],[-87.6546,41.996],[-87.6544,41.9961],[-87.6543,41.9965],[-87.6545,41.9981],[-87.6552,41.9991],[-87.6556,41.9996],[-87.656,42.0007],[-87.656,42.0011],[-87.6564,42.0021],[-87.6569,42.0025],[-87.657,42.0032],[-87.6572,42.0037],[-87.6573,42.0042],[-87.6568,42.0042],[-87.6573,42.0051],[-87.6574,42.0056],[-87.6574,42.0063],[-87.6558,42.0063],[-87.6553,42.0067],[-87.6565,42.0074],[-87.657,42.008],[-87.6575,42.0085],[-87.6587,42.0095],[-87.6592,42.0102],[-87.6601,42.011],[-87.6601,42.0112],[-87.6608,42.0118],[-87.661,42.012],[-87.6609,42.0122],[-87.6613,42.013],[-87.6616,42.0133],[-87.6615,42.0135],[-87.662,42.0146],[-87.6621,42.015],[-87.6625,42.0154],[-87.6626,42.016],[-87.6627,42.0162],[-87.6628,42.0166],[-87.663,42.0167],[-87.663,42.0171],[-87.6632,42.0172],[-87.6631,42.0177],[-87.6633,42.0178],[-87.6634,42.0186],[-87.6637,42.0187],[-87.664,42.0191],[-87.6638,42.0194],[-87.664,42.0202],[-87.6638,42.0203],[-87.664,42.0213],[-87.6642,42.0213],[-87.6647,42.0217],[-87.6646,42.0219],[-87.6648,42.0222],[-87.6653,42.0226],[-87.6651,42.0229],[-87.6772,42.023],[-87.6771,42.0226],[-87.6732,42.0194],[-87.6771,42.0194],[-87.6773,42.0194],[-87.6802,42.0194],[-87.6863,42.0195],[-87.69,42.0195],[-87.7021,42.0193],[-87.7045,42.0192],[-87.7087,42.0191],[-87.7088,42.0145],[-87.709,42.0134],[-87.7091,42.0115],[-87.7092,42.0105],[-87.7094,42.004],[-87.7094,42.0012],[-87.7093,41.9974],[-87.7107,41.9974],[-87.7105,41.9958],[-87.7102,41.994],[-87.7095,41.9916],[-87.7094,41.9913],[-87.7091,41.9904],[-87.7035,41.9904],[-87.6901,41.9905],[-87.6891,41.9905],[-87.6805,41.9907],[-87.6725,41.9908],[-87.6718,41.9908],[-87.6704,41.9908],[-87.6603,41.9909],[-87.6603,41.99],[-87.6595,41.99],[-87.6543,41.9901]]]},"properties":{"dist_num":"24","dist_label":"24TH"}},
{"type":"Feature","geometry":{"type":"Polygon","coordinates":[[[-87.7483,41.9973],[-87.7521,41.9973],[-87.7531,41.9974],[-87.7555,41.9985],[-87.7614,42.0013],[-87.7623,42.0017],[-87.762,42.0027],[-87.7619,42.0035],[-87.7617,42.0084],[-87.7675,42.0084],[-87.7676,42.0047],[-87.7655,42.0037],[-87.7658,42.0033],[-87.7677,42.0042],[-87.7689,42.0047],[-87.7699,42.0052],[-87.7733,42.012],[-87.7769,42.012],[-87.7769,42.0156],[-87.7792,42.0156],[-87.7793,42.012],[-87.7887,42.012],[-87.7833,42.0056],[-87.7828,42.0051],[-87.782,42.0045],[-87.7907,42.0004],[-87.7912,42.001],[-87.7971,42.0009],[-87.7971,42],[-87.7995,42],[-87.7996,42.0009],[-87.8011,42.0009],[-87.8011,42.0015],[-87.8053,42.0015],[-87.8054,42.0009],[-87.8068,42.0009],[-87.8066,42.0137],[-87.8065,42.019],[-87.8212,42.0186],[-87.8212,42.0155],[-87.8201,42.0156],[-87.8201,42.0141],[-87.8201,42.0119],[-87.8197,42.012],[-87.8197,42.0114],[-87.8213,42.0114],[-87.8213,42.0075],[-87.8214,42.0074],[-87.8213,42.004],[-87.8214,42.0005],[-87.8214,41.9969],[-87.8218,41.9952],[-87.8222,41.9931],[-87.8233,41.9845],[-87.8237,41.9846],[-87.8366,41.9864],[-87.8375,41.9865],[-87.8389,41.9867],[-87.8417,41.9871],[-87.844,41.9875],[-87.8495,41.9883],[-87.8506,41.9884],[-87.852,41.9885],[-87.8539,41.9886],[-87.8548,41.9888],[-87.8558,41.9891],[-87.8557,41.9887],[-87.8555,41.9879],[-87.8564,41.986],[-87.8566,41.9847],[-87.8566,41.9843],[-87.8562,41.9835],[-87.8558,41.9822],[-87.8559,41.9811],[-87.8563,41.9805],[-87.8585,41.9787],[-87.8594,41.9776],[-87.86,41.977],[-87.8607,41.9765],[-87.8612,41.976],[-87.8617,41.9753],[-87.862,41.9743],[-87.862,41.9739],[-87.8675,41.9737],[-87.8678,41.9738],[-87.8686,41.9738],[-87.8686,41.9741],[-87.8759,41.9739],[-87.8759,41.9766],[-87.8737,41.9767],[-87.875,41.9802],[-87.8749,41.9802],[-87.8759,41.9829],[-87.8759,41.9857],[-87.8769,41.9857],[-87.8804,41.9952],[-87.8845,41.9951],[-87.8845,41.9982],[-87.885,41.9983],[-87.885,41.9985],[-87.8867,41.9989],[-87.8894,41.9994],[-87.8908,41.9996],[-87.893,41.9999],[-87.8975,42.0005],[-87.8974,42.0015],[-87.8995,42.0015],[-87.9031,42.0034],[-87.9041,42.0036],[-87.9041,42.004],[-87.9024,42.004],[-87.9024,42.0036],[-87.8992,42.0019],[-87.8944,42.0021],[-87.8944,42.0022],[-87.8904,42.0023],[-87.8904,42.0028],[-87.89,42.0032],[-87.8919,42.004],[-87.8933,42.0039],[-87.8932,42.0033],[-87.8936,42.0033],[-87.8935,42.0027],[-87.8943,42.0027],[-87.8943,42.0057],[-87.8953,42.0057],[-87.8958,42.0059],[-87.896,42.0058],[-87.8972,42.0063],[-87.8984,42.0068],[-87.8992,42.007],[-87.9024,42.0079],[-87.9024,42.0081],[-87.9058,42.009],[-87.9077,42.0089],[-87.9077,42.0052],[-87.9083,42.0052],[-87.9113,42.0051],[-87.913,42.0051],[-87.913,42.0063],[-87.9133,42.0063],[-87.9133,42.0087],[-87.9138,42.0087],[-87.9138,42.0051],[-87.9206,42.005],[-87.9206,42.0039],[-87.9209,42.0039],[-87.9226,42.0059],[-87.9255,42.0077],[-87.9293,42.005],[-87.9303,42.0052],[-87.9303,42.005],[-87.9335,42.0054],[-87.9336,42.0082],[-87.9353,42.0082],[-87.9352,42.0033],[-87.9351,42.001],[-87.9352,42.0009],[-87.9401,42.0008],[-87.94,41.9981],[-87.9371,41.9986],[-87.9363,41.9996],[-87.9359,42.0001],[-87.9343,42.0017],[-87.9343,42.0012],[-87.9354,42.0002],[-87.9365,41.9988],[-87.9371,41.998],[-87.9376,41.997],[-87.9382,41.9958],[-87.9387,41.9942],[-87.9388,41.9935],[-87.9399,41.9935],[-87.9399,41.9902],[-87.9398,41.987],[-87.9398,41.9819],[-87.9397,41.9786],[-87.9397,41.9643],[-87.9394,41.9643],[-87.9394,41.9595],[-87.9393,41.9589],[-87.9391,41.9584],[-87.9395,41.9584],[-87.9395,41.9568],[-87.9342,41.956],[-87.9263,41.9547],[-87.9256,41.9546],[-87.9221,41.9538],[-87.9159,41.9523],[-87.916,41.9551],[-87.9163,41.9551],[-87.9158,41.9572],[-87.9152,41.9568],[-87.915,41.9562],[-87.9148,41.9551],[-87.9148,41.9543],[-87.9147,41.9529],[-87.9038,41.9506],[-87.8929,41.9508],[-87.8929,41.9581],[-87.8903,41.9581],[-87.8856,41.9575],[-87.8838,41.9573],[-87.8838,41.9574],[-87.8816,41.9571],[-87.8808,41.9572],[-87.8808,41.9655],[-87.8808,41.9692],[-87.8808,41.9729],[-87.8619,41.9733],[-87.8613,41.9726],[-87.8604,41.9719],[-87.8597,41.9716],[-87.859,41.9714],[-87.8587,41.9715],[-87.8575,41.9721],[-87.8566,41.9725],[-87.8558,41.9726],[-87.8552,41.9725],[-87.8546,41.972],[-87.8543,41.9716],[-87.8541,41.9712],[-87.8543,41.9703],[-87.8548,41.9694],[-87.855,41.9687],[-87.855,41.9679],[-87.8548,41.9672],[-87.8548,41.9669],[-87.855,41.9659],[-87.8553,41.9651],[-87.8555,41.9645],[-87.8557,41.9628],[-87.8558,41.9624],[-87.8563,41.9616],[-87.8576,41.9592],[-87.8581,41.9583],[-87.8587,41.9576],[-87.8588,41.9569],[-87.8586,41.9561],[-87.8583,41.9556],[-87.8576,41.9551],[-87.8564,41.9548],[-87.8557,41.9545],[-87.855,41.954],[-87.8544,41.9533],[-87.854,41.9524],[-87.854,41.9518],[-87.8542,41.9509],[-87.8549,41.9495],[-87.855,41.9489],[-87.855,41.9482],[-87.8549,41.9478],[-87.8541,41.9466],[-87.8536,41.945],[-87.8533,41.9438],[-87.853,41.9434],[-87.8531,41.9426],[-87.8525,41.9413],[-87.8521,41.9398],[-87.8518,41.9392],[-87.8514,41.9387],[-87.8507,41.9381],[-87.8496,41.9373],[-87.8266,41.9377],[-87.8259,41.9378],[-87.8165,41.9379],[-87.8142,41.938],[-87.8065,41.938],[-87.7946,41.9382],[-87.7865,41.9383],[-87.766,41.9386],[-87.7626,41.9386],[-87.7469,41.9388],[-87.7471,41.946],[-87.7471,41.9469],[-87.7472,41.9497],[-87.7472,41.9499],[-87.7473,41.953],[-87.7473,41.9537],[-87.7476,41.9622],[-87.747,41.9628],[-87.7471,41.9632],[-87.7476,41.9642],[-87.7476,41.9645],[-87.7477,41.9671],[-87.7477,41.968],[-87.7476,41.9686],[-87.7478,41.969],[-87.7479,41.9706],[-87.7479,41.9725],[-87.7482,41.9812],[-87.7483,41.984],[-87.7483,41.9857],[-87.7483,41.9973]],[[-87.8337,41.9754],[-87.8337,41.9749],[-87.8334,41.9749],[-87.8334,41.9739],[-87.8317,41.9739],[-87.8317,41.9731],[-87.8267,41.9731],[-87.8267,41.974],[-87.8194,41.9742],[-87.8194,41.9732],[-87.819,41.9732],[-87.819,41.9706],[-87.817,41.9707],[-87.8169,41.9743],[-87.8073,41.9745],[-87.8071,41.9745],[-87.8071,41.9732],[-87.8072,41.9683],[-87.8025,41.9683],[-87.8025,41.9688],[-87.7945,41.9688],[-87.7903,41.9689],[-87.788,41.9689],[-87.788,41.9684],[-87.7868,41.9684],[-87.7867,41.9673],[-87.7868,41.9635],[-87.787,41.9633],[-87.7869,41.9627],[-87.7868,41.9602],[-87.7881,41.9602],[-87.7918,41.9601],[-87.7942,41.9601],[-87.7947,41.9599],[-87.8065,41.9542],[-87.8073,41.9539],[-87.8073,41.9528],[-87.8076,41.9528],[-87.8217,41.9524],[-87.8318,41.9522],[-87.8318,41.954],[-87.8318,41.9557],[-87.8321,41.9571],[-87.8327,41.9594],[-87.8367,41.9594],[-87.8367,41.9666],[-87.8443,41.9665],[-87.8466,41.9664],[-87.8465,41.9682],[-87.8466,41.9695],[-87.8465,41.9719],[-87.8426,41.972],[-87.8416,41.972],[-87.8416,41.9701],[-87.8367,41.9702],[-87.8366,41.9714],[-87.838,41.9714],[-87.8379,41.9738],[-87.8416,41.9738],[-87.8416,41.9747],[-87.8385,41.9747],[-87.8366,41.9748],[-87.8366,41.9753],[-87.8337,41.9754]],[[-87.8282,41.9838],[-87.8281,41.9819],[-87.8253,41.982],[-87.8253,41.9831],[-87.8235,41.9831],[-87.8244,41.9761],[-87.8267,41.976],[-87.8336,41.9759],[-87.8336,41.9769],[-87.8296,41.977],[-87.8296,41.9773],[-87.83,41.9773],[-87.83,41.9784],[-87.8286,41.9785],[-87.8287,41.9791],[-87.8281,41.9791],[-87.8281,41.9793],[-87.8287,41.9793],[-87.8287,41.9803],[-87.8288,41.9806],[-87.834,41.9805],[-87.8351,41.9805],[-87.8351,41.9808],[-87.8344,41.9808],[-87.8343,41.9812],[-87.8351,41.9811],[-87.8351,41.9827],[-87.8336,41.9827],[-87.8336,41.9836],[-87.833,41.9837],[-87.8286,41.9838],[-87.8282,41.9838]]]},"properties":{"dist_num":"16","dist_label":"16TH"}},
{"type":"Feature","geometry":{"type":"Polygon","coordinates":[[[-87.7144,41.8286],[-87.7152,41.8283],[-87.7175,41.8276],[-87.7195,41.827],[-87.7207,41.8266],[-87.7216,41.8263],[-87.7241,41.8256],[-87.7251,41.8253],[-87.729,41.824],[-87.7314,41.8232],[-87.7336,41.8225],[-87.7348,41.8221],[-87.7363,41.8216],[-87.7382,41.8211],[-87.7405,41.8203],[-87.7416,41.82],[-87.7429,41.8195],[-87.7438,41.8194],[-87.7449,41.8191],[-87.745,41.816],[-87.7531,41.8134],[-87.7529,41.8062],[-87.7527,41.8002],[-87.7622,41.8001],[-87.7643,41.8],[-87.7721,41.7999],[-87.7737,41.7998],[-87.7818,41.7997],[-87.7831,41.7997],[-87.7879,41.7996],[-87.7908,41.7995],[-87.7928,41.7995],[-87.7972,41.7994],[-87.8015,41.7981],[-87.8016,41.7958],[-87.8016,41.7948],[-87.8015,41.7922],[-87.801,41.7797],[-87.801,41.7791],[-87.8009,41.7769],[-87.801,41.7764],[-87.8008,41.7755],[-87.8008,41.7742],[-87.8008,41.7737],[-87.7937,41.7738],[-87.7913,41.7738],[-87.7839,41.774],[-87.7819,41.774],[-87.7716,41.7742],[-87.7629,41.7744],[-87.7616,41.7744],[-87.7445,41.7747],[-87.7422,41.7748],[-87.7421,41.7745],[-87.742,41.7704],[-87.7419,41.7643],[-87.7418,41.7608],[-87.7417,41.7589],[-87.7415,41.7537],[-87.7415,41.7527],[-87.7414,41.7507],[-87.7414,41.7495],[-87.7413,41.7487],[-87.7413,41.7476],[-87.7409,41.7369],[-87.741,41.7356],[-87.7411,41.7345],[-87.7395,41.7346],[-87.7383,41.7345],[-87.7272,41.7347],[-87.726,41.7348],[-87.714,41.735],[-87.7092,41.7351],[-87.7022,41.7352],[-87.7012,41.7352],[-87.6955,41.7353],[-87.6825,41.7355],[-87.6827,41.7425],[-87.6827,41.7445],[-87.6817,41.7445],[-87.6809,41.7446],[-87.6801,41.7449],[-87.6794,41.7453],[-87.6789,41.7457],[-87.6785,41.7463],[-87.6784,41.7469],[-87.6783,41.7477],[-87.6783,41.7502],[-87.6786,41.7575],[-87.6788,41.7648],[-87.6787,41.7684],[-87.6788,41.7702],[-87.6788,41.772],[-87.6788,41.7756],[-87.679,41.7792],[-87.6792,41.7866],[-87.6793,41.7935],[-87.684,41.7934],[-87.684,41.7939],[-87.6929,41.7937],[-87.7036,41.7935],[-87.704,41.8079],[-87.7044,41.8192],[-87.7045,41.8222],[-87.7044,41.8226],[-87.7143,41.8224],[-87.7143,41.8242],[-87.7143,41.8261],[-87.7144,41.8286]]]},"properties":{"dist_num":"8","dist_label":"8TH"}},
{"type":"Feature","geometry":{"type":"Polygon","coordinates":[[[-87.6296,41.9265],[-87.6307,41.9262],[-87.6332,41.9258],[-87.634,41.9257],[-87.6376,41.9256],[-87.6494,41.9254],[-87.6566,41.9253],[-87.6654,41.9252],[-87.6745,41.9251],[-87.6744,41.9246],[-87.6743,41.9244],[-87.6738,41.924],[-87.6722,41.9228],[-87.6717,41.9226],[-87.6709,41.9224],[-87.6695,41.9224],[-87.6684,41.9222],[-87.6681,41.922],[-87.6673,41.9209],[-87.6665,41.92],[-87.6657,41.9189],[-87.6654,41.9186],[-87.6648,41.918],[-87.6644,41.9176],[-87.6639,41.9159],[-87.6637,41.9156],[-87.663,41.9155],[-87.6626,41.9156],[-87.6621,41.9159],[-87.6613,41.9162],[-87.6609,41.9161],[-87.6599,41.9155],[-87.6592,41.9151],[-87.6587,41.9147],[-87.6581,41.9141],[-87.6577,41.9134],[-87.6576,41.9128],[-87.6569,41.9111],[-87.6569,41.9107],[-87.6577,41.9084],[-87.6582,41.9057],[-87.6583,41.905],[-87.6582,41.9045],[-87.6574,41.9035],[-87.6565,41.9026],[-87.6562,41.9019],[-87.6562,41.9017],[-87.6559,41.9012],[-87.6554,41.9008],[-87.6545,41.9005],[-87.6526,41.9001],[-87.6521,41.9001],[-87.6514,41.8997],[-87.6509,41.8994],[-87.6494,41.8983],[-87.6488,41.8981],[-87.6479,41.898],[-87.6463,41.8979],[-87.6449,41.8977],[-87.6444,41.8972],[-87.6442,41.8966],[-87.6441,41.8943],[-87.6436,41.8935],[-87.6429,41.8932],[-87.6425,41.8929],[-87.6416,41.892],[-87.6407,41.8906],[-87.6394,41.8892],[-87.6393,41.8889],[-87.6388,41.8872],[-87.6384,41.8867],[-87.6376,41.8862],[-87.6373,41.8866],[-87.636,41.8873],[-87.6356,41.8875],[-87.6338,41.8875],[-87.6334,41.8875],[-87.6322,41.8875],[-87.6308,41.8874],[-87.6293,41.8874],[-87.6282,41.8874],[-87.6276,41.8875],[-87.6273,41.8877],[-87.6257,41.8887],[-87.6251,41.8889],[-87.624,41.8888],[-87.6236,41.8889],[-87.6227,41.8888],[-87.6212,41.8887],[-87.618,41.8883],[-87.6153,41.8884],[-87.6138,41.8884],[-87.6138,41.8888],[-87.6136,41.8889],[-87.6125,41.8891],[-87.6126,41.8902],[-87.6127,41.8902],[-87.6137,41.8902],[-87.6135,41.8906],[-87.6115,41.8906],[-87.6114,41.8898],[-87.6113,41.8893],[-87.6078,41.8892],[-87.6078,41.8885],[-87.6047,41.8886],[-87.6047,41.8887],[-87.6075,41.8886],[-87.6077,41.8887],[-87.6077,41.8894],[-87.6095,41.8894],[-87.6095,41.891],[-87.6009,41.8912],[-87.6006,41.8911],[-87.6006,41.8914],[-87.5985,41.8915],[-87.5985,41.8923],[-87.6006,41.8922],[-87.6009,41.8924],[-87.6098,41.8922],[-87.6098,41.8931],[-87.6024,41.8933],[-87.6023,41.8933],[-87.6023,41.8962],[-87.6024,41.8964],[-87.605,41.8963],[-87.6079,41.8963],[-87.608,41.8963],[-87.61,41.8962],[-87.6102,41.8962],[-87.612,41.8933],[-87.6126,41.8934],[-87.6137,41.8931],[-87.6149,41.8947],[-87.6164,41.8969],[-87.6172,41.8981],[-87.618,41.8992],[-87.6192,41.9011],[-87.6199,41.9016],[-87.6206,41.9017],[-87.6219,41.902],[-87.622,41.9024],[-87.6229,41.9035],[-87.6236,41.9039],[-87.6236,41.9041],[-87.6246,41.907],[-87.6248,41.9075],[-87.625,41.9085],[-87.6251,41.9098],[-87.625,41.9104],[-87.6248,41.9106],[-87.6247,41.911],[-87.6247,41.9114],[-87.6233,41.9125],[-87.6226,41.9128],[-87.6213,41.913],[-87.6208,41.9132],[-87.6204,41.9134],[-87.6206,41.9138],[-87.6211,41.9136],[-87.6217,41.9135],[-87.6224,41.9136],[-87.6233,41.9138],[-87.624,41.9142],[-87.625,41.9148],[-87.6258,41.9155],[-87.6263,41.9158],[-87.6268,41.9163],[-87.6267,41.9164],[-87.6271,41.9168],[-87.6276,41.9172],[-87.6279,41.9176],[-87.6274,41.918],[-87.6279,41.9185],[-87.6284,41.9191],[-87.628,41.9195],[-87.6287,41.9203],[-87.6289,41.9207],[-87.6285,41.921],[-87.6287,41.9213],[-87.6294,41.9223],[-87.629,41.9227],[-87.6299,41.9235],[-87.6301,41.924],[-87.6302,41.9247],[-87.6303,41.9257],[-87.6299,41.9262],[-87.6296,41.9262],[-87.6296,41.9265]]]},"properties":{"dist_num":"18","dist_label":"18TH"}},
{"type":"Feature","geometry":{"type":"Polygon","coordinates":[[[-87.6574,41.9035],[-87.6643,41.9034],[-87.667,41.9034],[-87.6751,41.9032],[-87.6824,41.9031],[-87.6872,41.903],[-87.6984,41.9029],[-87.7068,41.9028],[-87.7066,41.8959],[-87.7062,41.8829],[-87.7061,41.881],[-87.696,41.8811],[-87.6943,41.8811],[-87.6864,41.8812],[-87.6863,41.8769],[-87.6862,41.8755],[-87.6863,41.8748],[-87.686,41.8666],[-87.6858,41.8581],[-87.6858,41.8577],[-87.6858,41.8571],[-87.6856,41.852],[-87.685,41.852],[-87.6754,41.8522],[-87.6689,41.8523],[-87.666,41.8523],[-87.666,41.851],[-87.666,41.8478],[-87.6659,41.8449],[-87.6654,41.8449],[-87.6649,41.8447],[-87.6639,41.844],[-87.6638,41.8443],[-87.6635,41.8445],[-87.6616,41.8453],[-87.6604,41.846],[-87.6589,41.8472],[-87.6576,41.848],[-87.657,41.8482],[-87.6563,41.8484],[-87.6534,41.848],[-87.6531,41.8479],[-87.6516,41.8482],[-87.651,41.8483],[-87.6496,41.8484],[-87.6486,41.8486],[-87.6468,41.8492],[-87.6459,41.8494],[-87.6449,41.8494],[-87.644,41.8495],[-87.6433,41.8497],[-87.6426,41.85],[-87.6422,41.8505],[-87.6411,41.8518],[-87.6403,41.853],[-87.6394,41.8543],[-87.639,41.8546],[-87.6375,41.8553],[-87.6362,41.8563],[-87.6355,41.8569],[-87.6352,41.8577],[-87.6351,41.8582],[-87.6348,41.8589],[-87.6345,41.8594],[-87.6345,41.8601],[-87.6378,41.86],[-87.639,41.86],[-87.6439,41.86],[-87.644,41.8612],[-87.6441,41.8624],[-87.644,41.8644],[-87.6441,41.8659],[-87.6441,41.8672],[-87.6444,41.8697],[-87.6445,41.872],[-87.6447,41.8743],[-87.6448,41.8754],[-87.6447,41.8757],[-87.6454,41.8776],[-87.6455,41.8784],[-87.6452,41.8795],[-87.6451,41.88],[-87.6452,41.8818],[-87.6452,41.8842],[-87.6454,41.8857],[-87.6413,41.8857],[-87.6377,41.8857],[-87.6376,41.8862],[-87.6384,41.8867],[-87.6388,41.8872],[-87.6393,41.8889],[-87.6394,41.8892],[-87.6407,41.8906],[-87.6416,41.892],[-87.6425,41.8929],[-87.6429,41.8932],[-87.6436,41.8935],[-87.6441,41.8943],[-87.6442,41.8966],[-87.6444,41.8972],[-87.6449,41.8977],[-87.6463,41.8979],[-87.6479,41.898],[-87.6488,41.8981],[-87.6494,41.8983],[-87.6509,41.8994],[-87.6514,41.8997],[-87.6521,41.9001],[-87.6526,41.9001],[-87.6545,41.9005],[-87.6554,41.9008],[-87.6559,41.9012],[-87.6562,41.9017],[-87.6562,41.9019],[-87.6565,41.9026],[-87.6574,41.9035]]]},"properties":{"dist_num":"12","dist_label":"12TH"}},
{"type":"Feature","geometry":{"type":"Polygon","coordinates":[[[-87.7068,41.9028],[-87.7108,41.9028],[-87.7166,41.9028],[-87.7261,41.9027],[-87.7358,41.9025],[-87.746,41.9024],[-87.7458,41.8952],[-87.7456,41.8902],[-87.7453,41.8812],[-87.7451,41.8767],[-87.745,41.873],[-87.7449,41.8722],[-87.7449,41.871],[-87.7449,41.8696],[-87.7448,41.8659],[-87.7399,41.866],[-87.7238,41.8662],[-87.7166,41.8663],[-87.7156,41.8663],[-87.7045,41.8664],[-87.7028,41.8664],[-87.6949,41.8665],[-87.686,41.8666],[-87.6863,41.8748],[-87.6862,41.8755],[-87.6863,41.8769],[-87.6864,41.8812],[-87.6943,41.8811],[-87.696,41.8811],[-87.7061,41.881],[-87.7062,41.8829],[-87.7066,41.8959],[-87.7068,41.9028]]]},"properties":{"dist_num":"11","dist_label":"11TH"}},
{"type":"Feature","geometry":{"type":"Polygon","coordinates":[[[-87.746,41.9024],[-87.7644,41.9022],[-87.7754,41.902],[-87.7752,41.8955],[-87.775,41.8902],[-87.7746,41.8794],[-87.7745,41.8756],[-87.7744,41.873],[-87.7743,41.8714],[-87.7743,41.8707],[-87.7743,41.8693],[-87.7741,41.8655],[-87.7646,41.8656],[-87.764,41.8656],[-87.7448,41.8659],[-87.7449,41.8696],[-87.7449,41.871],[-87.7449,41.8722],[-87.745,41.873],[-87.7451,41.8767],[-87.7453,41.8812],[-87.7456,41.8902],[-87.7458,41.8952],[-87.746,41.9024]]]},"properties":{"dist_num":"15","dist_label":"15TH"}},
{"type":"Feature","geometry":{"type":"Polygon","coordinates":[[[-87.686,41.8666],[-87.6949,41.8665],[-87.7028,41.8664],[-87.7045,41.8664],[-87.7156,41.8663],[-87.7166,41.8663],[-87.7238,41.8662],[-87.7399,41.866],[-87.7399,41.8639],[-87.7398,41.8634],[-87.7397,41.8618],[-87.7395,41.8525],[-87.7394,41.8517],[-87.7394,41.8502],[-87.7394,41.8483],[-87.7393,41.8477],[-87.7391,41.8426],[-87.7389,41.8349],[-87.7389,41.833],[-87.7386,41.8221],[-87.7448,41.822],[-87.7449,41.8191],[-87.7438,41.8194],[-87.7429,41.8195],[-87.7416,41.82],[-87.7405,41.8203],[-87.7382,41.8211],[-87.7363,41.8216],[-87.7348,41.8221],[-87.7336,41.8225],[-87.7314,41.8232],[-87.729,41.824],[-87.7251,41.8253],[-87.7241,41.8256],[-87.7216,41.8263],[-87.7207,41.8266],[-87.7195,41.827],[-87.7175,41.8276],[-87.7152,41.8283],[-87.7144,41.8286],[-87.7068,41.831],[-87.7049,41.8316],[-87.7032,41.8321],[-87.6996,41.8333],[-87.6954,41.8346],[-87.6939,41.8351],[-87.6901,41.8363],[-87.6884,41.8368],[-87.6875,41.837],[-87.6855,41.8377],[-87.6833,41.8384],[-87.6776,41.8402],[-87.6771,41.8405],[-87.6757,41.8415],[-87.6749,41.8417],[-87.6743,41.842],[-87.6729,41.8428],[-87.6699,41.844],[-87.6675,41.8448],[-87.6667,41.8449],[-87.6659,41.8449],[-87.666,41.8478],[-87.666,41.851],[-87.666,41.8523],[-87.6689,41.8523],[-87.6754,41.8522],[-87.685,41.852],[-87.6856,41.852],[-87.6858,41.8571],[-87.6858,41.8577],[-87.6858,41.8581],[-87.686,41.8666]]]},"properties":{"dist_num":"10","dist_label":"10TH"}},
{"type":"Feature","geometry":{"type":"Polygon","coordinates":[[[-87.6138,41.8884],[-87.6153,41.8884],[-87.618,41.8883],[-87.6212,41.8887],[-87.6227,41.8888],[-87.6236,41.8889],[-87.624,41.8888],[-87.6251,41.8889],[-87.6257,41.8887],[-87.6273,41.8877],[-87.6276,41.8875],[-87.6282,41.8874],[-87.6293,41.8874],[-87.6308,41.8874],[-87.6322,41.8875],[-87.6334,41.8875],[-87.6338,41.8875],[-87.6356,41.8875],[-87.636,41.8873],[-87.6373,41.8866],[-87.6376,41.8862],[-87.6377,41.8857],[-87.6413,41.8857],[-87.6454,41.8857],[-87.6452,41.8842],[-87.6452,41.8818],[-87.6451,41.88],[-87.6452,41.8795],[-87.6455,41.8784],[-87.6454,41.8776],[-87.6447,41.8757],[-87.6448,41.8754],[-87.6447,41.8743],[-87.6445,41.872],[-87.6444,41.8697],[-87.6441,41.8672],[-87.6441,41.8659],[-87.644,41.8644],[-87.6441,41.8624],[-87.644,41.8612],[-87.6439,41.86],[-87.639,41.86],[-87.6378,41.86],[-87.6345,41.8601],[-87.6319,41.8601],[-87.6309,41.8601],[-87.6308,41.8578],[-87.6306,41.854],[-87.6303,41.8529],[-87.6302,41.8511],[-87.6301,41.8492],[-87.63,41.8479],[-87.6299,41.8455],[-87.6299,41.8443],[-87.6297,41.8383],[-87.6282,41.8383],[-87.6134,41.8385],[-87.6111,41.8385],[-87.6095,41.8385],[-87.6077,41.8386],[-87.6062,41.8386],[-87.6062,41.8387],[-87.6066,41.8392],[-87.6071,41.8395],[-87.6075,41.8404],[-87.608,41.841],[-87.6081,41.8414],[-87.6082,41.8422],[-87.6085,41.8427],[-87.6089,41.8433],[-87.6092,41.8445],[-87.609,41.845],[-87.6085,41.8456],[-87.6084,41.8459],[-87.6084,41.8464],[-87.6086,41.8466],[-87.6093,41.8476],[-87.6095,41.8481],[-87.6095,41.8487],[-87.6092,41.8504],[-87.6092,41.851],[-87.6094,41.8514],[-87.6105,41.8527],[-87.6108,41.8532],[-87.611,41.8538],[-87.611,41.8546],[-87.6111,41.8548],[-87.6115,41.8552],[-87.6122,41.8557],[-87.6126,41.856],[-87.6129,41.8564],[-87.613,41.857],[-87.613,41.8576],[-87.6128,41.8582],[-87.6125,41.8585],[-87.6122,41.8587],[-87.6122,41.8593],[-87.6124,41.86],[-87.6122,41.8603],[-87.6122,41.8606],[-87.6125,41.8608],[-87.6126,41.8614],[-87.613,41.8618],[-87.6133,41.8624],[-87.6134,41.8629],[-87.6134,41.8635],[-87.6133,41.864],[-87.6127,41.8653],[-87.6127,41.8658],[-87.6105,41.8659],[-87.6104,41.8653],[-87.61,41.8646],[-87.6097,41.8641],[-87.6096,41.8635],[-87.6098,41.8625],[-87.61,41.8618],[-87.6104,41.8614],[-87.6103,41.8608],[-87.6107,41.8607],[-87.6107,41.8602],[-87.6104,41.8601],[-87.6104,41.8597],[-87.6105,41.8593],[-87.6101,41.8589],[-87.6099,41.8586],[-87.61,41.858],[-87.6098,41.8574],[-87.6093,41.8569],[-87.6099,41.854],[-87.6098,41.8537],[-87.6093,41.8533],[-87.6088,41.8532],[-87.6075,41.8533],[-87.6066,41.8534],[-87.6067,41.8556],[-87.6071,41.86],[-87.6068,41.8601],[-87.606,41.8601],[-87.606,41.862],[-87.6068,41.8622],[-87.607,41.8624],[-87.6075,41.8638],[-87.6076,41.8644],[-87.6073,41.8649],[-87.607,41.8651],[-87.6067,41.8652],[-87.606,41.8648],[-87.6061,41.8657],[-87.6056,41.8662],[-87.6057,41.8666],[-87.6061,41.8671],[-87.6068,41.8672],[-87.6072,41.8672],[-87.6077,41.8669],[-87.6106,41.8668],[-87.6107,41.8668],[-87.6127,41.8668],[-87.6127,41.867],[-87.6123,41.8675],[-87.6124,41.8679],[-87.6126,41.8682],[-87.6133,41.8685],[-87.6141,41.8685],[-87.6147,41.8683],[-87.6154,41.8683],[-87.6159,41.8687],[-87.6162,41.8689],[-87.6163,41.8716],[-87.6162,41.872],[-87.6162,41.8738],[-87.6162,41.875],[-87.6162,41.877],[-87.6163,41.8778],[-87.6164,41.8798],[-87.6165,41.8806],[-87.6157,41.8806],[-87.6158,41.8814],[-87.6165,41.8814],[-87.6164,41.882],[-87.616,41.8824],[-87.6155,41.8825],[-87.6147,41.8825],[-87.6142,41.8826],[-87.6134,41.8829],[-87.6129,41.8833],[-87.6128,41.8837],[-87.6127,41.8841],[-87.61,41.8841],[-87.6099,41.8871],[-87.6098,41.888],[-87.6078,41.8882],[-87.6025,41.8883],[-87.6025,41.8884],[-87.6079,41.8883],[-87.61,41.8881],[-87.61,41.888],[-87.6112,41.888],[-87.6111,41.8879],[-87.6103,41.8879],[-87.6103,41.8874],[-87.61,41.8874],[-87.6101,41.8871],[-87.6102,41.8841],[-87.6127,41.8841],[-87.6127,41.8879],[-87.6135,41.8879],[-87.6138,41.8881],[-87.6138,41.8884]]]},"properties":{"dist_num":"1","dist_label":"1ST"}},
{"type":"Feature","geometry":{"type":"Polygon","coordinates":[[[-87.6297,41.8383],[-87.6299,41.8443],[-87.6299,41.8455],[-87.63,41.8479],[-87.6301,41.8492],[-87.6302,41.8511],[-87.6303,41.8529],[-87.6306,41.854],[-87.6308,41.8578],[-87.6309,41.8601],[-87.6319,41.8601],[-87.6345,41.8601],[-87.6345,41.8594],[-87.6348,41.8589],[-87.6351,41.8582],[-87.6352,41.8577],[-87.6355,41.8569],[-87.6362,41.8563],[-87.6375,41.8553],[-87.639,41.8546],[-87.6394,41.8543],[-87.6403,41.853],[-87.6411,41.8518],[-87.6422,41.8505],[-87.6426,41.85],[-87.6433,41.8497],[-87.644,41.8495],[-87.6449,41.8494],[-87.6459,41.8494],[-87.6468,41.8492],[-87.6486,41.8486],[-87.6496,41.8484],[-87.651,41.8483],[-87.6516,41.8482],[-87.6531,41.8479],[-87.6534,41.848],[-87.6563,41.8484],[-87.657,41.8482],[-87.6576,41.848],[-87.6589,41.8472],[-87.6604,41.846],[-87.6616,41.8453],[-87.6635,41.8445],[-87.6638,41.8443],[-87.6639,41.844],[-87.6649,41.8447],[-87.6654,41.8449],[-87.6659,41.8449],[-87.6667,41.8449],[-87.6675,41.8448],[-87.6699,41.844],[-87.6729,41.8428],[-87.6743,41.842],[-87.6749,41.8417],[-87.6757,41.8415],[-87.6771,41.8405],[-87.6776,41.8402],[-87.6833,41.8384],[-87.6855,41.8377],[-87.6875,41.837],[-87.6884,41.8368],[-87.6901,41.8363],[-87.6939,41.8351],[-87.6954,41.8346],[-87.6996,41.8333],[-87.7032,41.8321],[-87.7049,41.8316],[-87.7068,41.831],[-87.7144,41.8286],[-87.7143,41.8261],[-87.7143,41.8242],[-87.7143,41.8224],[-87.7044,41.8226],[-87.7045,41.8222],[-87.7044,41.8192],[-87.704,41.8079],[-87.7036,41.7935],[-87.6929,41.7937],[-87.684,41.7939],[-87.684,41.7934],[-87.6793,41.7935],[-87.6644,41.7937],[-87.6462,41.7939],[-87.6457,41.7939],[-87.6333,41.7942],[-87.6308,41.7942],[-87.6308,41.7968],[-87.6308,41.7984],[-87.6309,41.801],[-87.6311,41.805],[-87.6314,41.8077],[-87.6314,41.8084],[-87.6313,41.8089],[-87.6311,41.8094],[-87.6309,41.8099],[-87.63,41.8112],[-87.6297,41.812],[-87.6296,41.8126],[-87.6296,41.8132],[-87.6298,41.8148],[-87.6299,41.8155],[-87.6299,41.8185],[-87.6299,41.82],[-87.63,41.8224],[-87.6301,41.825],[-87.6301,41.826],[-87.6302,41.8287],[-87.6303,41.8327],[-87.6303,41.8334],[-87.6303,41.8352],[-87.6304,41.8375],[-87.6303,41.8383],[-87.6297,41.8383]]]},"properties":{"dist_num":"9","dist_label":"9TH"}},
{"type":"Feature","geometry":{"type":"Polygon","coordinates":[[[-87.6062,41.8386],[-87.6077,41.8386],[-87.6095,41.8385],[-87.6111,41.8385],[-87.6134,41.8385],[-87.6282,41.8383],[-87.6297,41.8383],[-87.6303,41.8383],[-87.6304,41.8375],[-87.6303,41.8352],[-87.6303,41.8334],[-87.6303,41.8327],[-87.6302,41.8287],[-87.6301,41.826],[-87.6301,41.825],[-87.63,41.8224],[-87.6299,41.82],[-87.6299,41.8185],[-87.6299,41.8155],[-87.6298,41.8148],[-87.6296,41.8132],[-87.6296,41.8126],[-87.6297,41.812],[-87.63,41.8112],[-87.6309,41.8099],[-87.6311,41.8094],[-87.6313,41.8089],[-87.6314,41.8084],[-87.6314,41.8077],[-87.6311,41.805],[-87.6309,41.801],[-87.6308,41.7984],[-87.6308,41.7968],[-87.6308,41.7942],[-87.6307,41.7921],[-87.6306,41.7909],[-87.6306,41.7894],[-87.6306,41.787],[-87.6306,41.7854],[-87.6303,41.7855],[-87.6257,41.7855],[-87.6251,41.7855],[-87.6209,41.7856],[-87.6202,41.7856],[-87.6164,41.7857],[-87.606,41.7859],[-87.606,41.7841],[-87.5957,41.7842],[-87.5914,41.7842],[-87.5915,41.7861],[-87.5866,41.7861],[-87.5867,41.7907],[-87.5867,41.7918],[-87.5866,41.7934],[-87.5806,41.7935],[-87.5795,41.7935],[-87.5789,41.7943],[-87.5783,41.7947],[-87.5778,41.7949],[-87.5769,41.7951],[-87.5766,41.795],[-87.5761,41.7951],[-87.5754,41.7954],[-87.5752,41.7962],[-87.5753,41.7966],[-87.5756,41.7969],[-87.5761,41.797],[-87.5765,41.797],[-87.5773,41.7969],[-87.578,41.7969],[-87.5784,41.7971],[-87.5791,41.7976],[-87.5797,41.7981],[-87.5802,41.7987],[-87.5807,41.7996],[-87.5809,41.8004],[-87.581,41.8011],[-87.5807,41.8023],[-87.5804,41.803],[-87.58,41.8036],[-87.5802,41.804],[-87.5807,41.8042],[-87.5812,41.8043],[-87.5823,41.8051],[-87.5839,41.8062],[-87.5845,41.8066],[-87.5852,41.8072],[-87.5857,41.808],[-87.5861,41.8087],[-87.5863,41.8092],[-87.5869,41.8101],[-87.587,41.8106],[-87.5869,41.8112],[-87.5872,41.8115],[-87.5874,41.8119],[-87.5883,41.812],[-87.5888,41.8123],[-87.5891,41.8128],[-87.5896,41.8131],[-87.5902,41.8137],[-87.5905,41.8146],[-87.5909,41.815],[-87.5914,41.8159],[-87.592,41.8163],[-87.5923,41.8168],[-87.5924,41.8172],[-87.5923,41.8177],[-87.5928,41.8184],[-87.5934,41.8186],[-87.594,41.8191],[-87.5945,41.8192],[-87.5947,41.8196],[-87.5951,41.8198],[-87.5957,41.8204],[-87.5957,41.8205],[-87.5962,41.8213],[-87.5968,41.822],[-87.597,41.8222],[-87.5973,41.8231],[-87.5976,41.8235],[-87.598,41.824],[-87.5984,41.8243],[-87.5985,41.8248],[-87.5985,41.8255],[-87.5989,41.8261],[-87.5992,41.8264],[-87.6006,41.8269],[-87.6013,41.8279],[-87.6017,41.8288],[-87.6019,41.8294],[-87.6017,41.8297],[-87.6025,41.8306],[-87.6028,41.8313],[-87.6028,41.8319],[-87.6028,41.8323],[-87.6031,41.8327],[-87.6035,41.833],[-87.6043,41.833],[-87.6048,41.8334],[-87.605,41.8339],[-87.6051,41.8345],[-87.6048,41.8347],[-87.6047,41.8351],[-87.6053,41.8356],[-87.6056,41.8359],[-87.606,41.8367],[-87.6062,41.8373],[-87.6062,41.8386]]]},"properties":{"dist_num":"2","dist_label":"2ND"}}
]}